[{"OBJECT_NAME":"STARLINK-32405","OBJECT_ID":"2024-191R","EPOCH":"2026-03-09T05:49:13.932768","MEAN_MOTION":15.27567531,"ECCENTRICITY":0.00033986,"INCLINATION":43.0024,"RA_OF_ASC_NODE":160.8737,"ARG_OF_PERICENTER":286.9855,"MEAN_ANOMALY":73.0624,"EPHEMERIS_TYPE":0,"CLASSIFICATION_TYPE":"U","NORAD_CAT_ID":61636,"ELEMENT_SET_NO":999,"REV_AT_EPOCH":7742,"BSTAR":-2.9301245e-5,"MEAN_MOTION_DOT":-1.069e-5,"MEAN_MOTION_DDOT":0},{"OBJECT_NAME":"WT 1B","OBJECT_ID":"2019-032G","EPOCH":"2026-03-09T21:42:21.881088","MEAN_MOTION":15.25021485,"ECCENTRICITY":0.0008099,"INCLINATION":44.9738,"RA_OF_ASC_NODE":242.0209,"ARG_OF_PERICENTER":49.7728,"MEAN_ANOMALY":310.3861,"EPHEMERIS_TYPE":0,"CLASSIFICATION_TYPE":"U","NORAD_CAT_ID":44316,"ELEMENT_SET_NO":999,"REV_AT_EPOCH":37191,"BSTAR":0.00065022477,"MEAN_MOTION_DOT":0.00016297,"MEAN_MOTION_DDOT":0}]
